[{"OBJECT_NAME":"DONGPO 08","OBJECT_ID":"2022-167E","EPOCH":"2026-03-09T22:57:52.742880","MEAN_MOTION":15.31542505,"ECCENTRICITY":0.00092155,"INCLINATION":97.6764,"RA_OF_ASC_NODE":233.3854,"ARG_OF_PERICENTER":153.9158,"MEAN_ANOMALY":206.2548,"EPHEMERIS_TYPE":0,"CLASSIFICATION_TYPE":"U","NORAD_CAT_ID":54686,"ELEMENT_SET_NO":999,"REV_AT_EPOCH":18012,"BSTAR":0.0004734784,"MEAN_MOTION_DOT":0.0001437,"MEAN_MOTION_DDOT":0},{"OBJECT_NAME":"STARLINK-31762","OBJECT_ID":"2024-080P","EPOCH":"2026-03-09T23:13:29.626464","MEAN_MOTION":15.27564601,"ECCENTRICITY":0.00013225,"INCLINATION":43.004,"RA_OF_ASC_NODE":36.4679,"ARG_OF_PERICENTER":264.2602,"MEAN_ANOMALY":95.8099,"EPHEMERIS_TYPE":0,"CLASSIFICATION_TYPE":"U","NORAD_CAT_ID":59614,"ELEMENT_SET_NO":999,"REV_AT_EPOCH":10457,"BSTAR":-0.000112403,"MEAN_MOTION_DOT":-3.352e-5,"MEAN_MOTION_DDOT":0}]
